IRIDIUM 119             
1 42959U 17061E   25170.95831919  .00000019  00000+0 -37724-6 0  9993
2 42959  86.3998 176.6296 0002467  91.8029 268.3449 14.34217776402890
IRIDIUM 107             
1 42960U 17061F   25171.46572599  .00000018  00000+0 -79224-6 0  9998
2 42960  86.3998 176.4368 0002608  82.5981 277.5511 14.34217670402986
IRIDIUM 132             
1 42961U 17061G   25170.56507827  .00000035  00000+0  55271-5 0  9994
2 42961  86.3992 176.7949 0002427  87.1814 272.9659 14.34217678402849
IRIDIUM 136             
1 42962U 17061H   25171.01540235  .00000004  00000+0 -54715-5 0  9995
2 42962  86.3999 176.6118 0002483  90.0288 270.1193 14.34217654402920
IRIDIUM 139             
1 42963U 17061J   25170.39382833  .00000001  00000+0 -67871-5 0  9998
2 42963  86.4000 176.9272 0002436  85.3493 274.7981 14.34217549402841
IRIDIUM 125             
1 42964U 17061K   25170.45091131  .00000069  00000+0  17441-4 0  9994
2 42964  86.3995 176.9577 0002995  91.6091 268.5448 14.34218332402868
IRIDIUM 135             
1 43070U 17083A   25170.77387936 -.00000002  00000+0 -76787-5 0  9991
2 43070  86.3968 113.5387 0001950  84.4734 275.6684 14.34217438392200
IRIDIUM 138             
1 43071U 17083B   25170.58994579 -.00000094  00000+0 -40645-4 0  9992
2 43071  86.3958 113.2860 0002414  96.1656 263.9815 14.34216702392166
